{
  "type": "FeatureCollection",
  "features": [
    {
      "type": "Feature",
      "properties": {
        "norad_id": 31307,
        "name": "GALAXY 17 (G-17)",
        "group": "intelsat",
        "lat": 0.4245077101347728,
        "lon": 91.26522018761014,
        "alt_km": 35807.837094684655,
        "timestamp": "2025-12-21T05:44:51.243470+00:00",
        "meta_object_name": "GALAXY 17 (G-17)",
        "meta_object_id": "2007-016B",
        "meta_epoch": "2025-12-20T21:23:12.657408",
        "meta_mean_motion": 1.00270194,
        "meta_eccentricity": 0.00053389,
        "meta_inclination": 2.5191,
        "meta_ra_of_asc_node": 82.196,
        "meta_arg_of_pericenter": 169.6137,
        "meta_mean_anomaly": 73.7388,
        "meta_ephemeris_type": 0,
        "meta_classification_type": "U",
        "meta_norad_cat_id": 31307,
        "meta_element_set_no": 999,
        "meta_rev_at_epoch": 6801,
        "meta_bstar": 0,
        "meta_mean_motion_dot": -1.85e-06,
        "meta_mean_motion_ddot": 0,
        "tle_line1": "1 31307U 07016B   25354.89111872 -.00000185  00000+0  00000+0 0  9997",
        "tle_line2": "2 31307   2.5191  82.1960 0005338 169.6137  73.7388  1.00270194 68017"
      },
      "geometry": {
        "type": "Point",
        "coordinates": [
          91.26522018761014,
          0.4245077101347728
        ]
      }
    },
    {
      "type": "Feature",
      "properties": {
        "norad_id": 31862,
        "name": "DIRECTV 10",
        "group": "intelsat",
        "lat": -0.0020884632419822537,
        "lon": 73.45844099004405,
        "alt_km": 35787.00354167093,
        "timestamp": "2025-12-21T05:44:51.243486+00:00",
        "meta_object_name": "DIRECTV 10",
        "meta_object_id": "2007-032A",
        "meta_epoch": "2025-12-20T21:18:05.647104",
        "meta_mean_motion": 1.00270377,
        "meta_eccentricity": 2.729e-05,
        "meta_inclination": 0.0073,
        "meta_ra_of_asc_node": 111.6707,
        "meta_arg_of_pericenter": 78.7977,
        "meta_mean_anomaly": 115.9664,
        "meta_ephemeris_type": 0,
        "meta_classification_type": "U",
        "meta_norad_cat_id": 31862,
        "meta_element_set_no": 999,
        "meta_rev_at_epoch": 4380,
        "meta_bstar": 0,
        "meta_mean_motion_dot": -8e-07,
        "meta_mean_motion_ddot": 0,
        "tle_line1": "1 31862U 07032A   25354.88756536 -.00000080  00000+0  00000+0 0  9996",
        "tle_line2": "2 31862   0.0073 111.6707 0000272  78.7977 115.9664  1.00270377 43805"
      },
      "geometry": {
        "type": "Point",
        "coordinates": [
          73.45844099004405,
          -0.0020884632419822537
        ]
      }
    },
    {
      "type": "Feature",
      "properties": {
        "norad_id": 32253,
        "name": "INTELSAT 11 (IS-11)",
        "group": "intelsat",
        "lat": -3.012388991172826,
        "lon": 4.687461726131195,
        "alt_km": 36146.889577524074,
        "timestamp": "2025-12-21T05:44:51.243497+00:00",
        "meta_object_name": "INTELSAT 11 (IS-11)",
        "meta_object_id": "2007-044B",
        "meta_epoch": "2025-12-20T19:16:17.312160",
        "meta_mean_motion": 0.99052323,
        "meta_eccentricity": 0.00085352,
        "meta_inclination": 3.0999,
        "meta_ra_of_asc_node": 80.8877,
        "meta_arg_of_pericenter": 169.061,
        "meta_mean_anomaly": 318.9785,
        "meta_ephemeris_type": 0,
        "meta_classification_type": "U",
        "meta_norad_cat_id": 32253,
        "meta_element_set_no": 999,
        "meta_rev_at_epoch": 6668,
        "meta_bstar": 0,
        "meta_mean_motion_dot": -7e-07,
        "meta_mean_motion_ddot": 0,
        "tle_line1": "1 32253U 07044B   25354.80297815 -.00000070  00000+0  00000+0 0  9995",
        "tle_line2": "2 32253   3.0999  80.8877 0008535 169.0610 318.9785  0.99052323 66689"
      },
      "geometry": {
        "type": "Point",
        "coordinates": [
          4.687461726131195,
          -3.012388991172826
        ]
      }
    },
    {
      "type": "Feature",
      "properties": {
        "norad_id": 32388,
        "name": "HORIZONS-2",
        "group": "intelsat",
        "lat": 0.7455711265931885,
        "lon": 102.46755845604892,
        "alt_km": 35805.454164798706,
        "timestamp": "2025-12-21T05:44:51.243509+00:00",
        "meta_object_name": "HORIZONS-2",
        "meta_object_id": "2007-063B",
        "meta_epoch": "2025-12-20T21:26:19.857696",
        "meta_mean_motion": 1.00271536,
        "meta_eccentricity": 0.00045896,
        "meta_inclination": 2.1416,
        "meta_ra_of_asc_node": 82.8744,
        "meta_arg_of_pericenter": 194.2887,
        "meta_mean_anomaly": 60.3571,
        "meta_ephemeris_type": 0,
        "meta_classification_type": "U",
        "meta_norad_cat_id": 32388,
        "meta_element_set_no": 999,
        "meta_rev_at_epoch": 6602,
        "meta_bstar": 0,
        "meta_mean_motion_dot": -2.32e-06,
        "meta_mean_motion_ddot": 0,
        "tle_line1": "1 32388U 07063B   25354.89328539 -.00000232  00000+0  00000+0 0  9992",
        "tle_line2": "2 32388   2.1416  82.8744 0004589 194.2887  60.3571  1.00271536 66029"
      },
      "geometry": {
        "type": "Point",
        "coordinates": [
          102.46755845604892,
          0.7455711265931885
        ]
      }
    },
    {
      "type": "Feature",
      "properties": {
        "norad_id": 32729,
        "name": "DIRECTV 11",
        "group": "intelsat",
        "lat": 0.019550670629968615,
        "lon": 77.07266408479452,
        "alt_km": 35783.834301950264,
        "timestamp": "2025-12-21T05:44:51.243521+00:00",
        "meta_object_name": "DIRECTV 11",
        "meta_object_id": "2008-013A",
        "meta_epoch": "2025-12-20T21:19:05.550816",
        "meta_mean_motion": 1.00274637,
        "meta_eccentricity": 8.088e-05,
        "meta_inclination": 0.0493,
        "meta_ra_of_asc_node": 192.0747,
        "meta_arg_of_pericenter": 309.9417,
        "meta_mean_anomaly": 168.2831,
        "meta_ephemeris_type": 0,
        "meta_classification_type": "U",
        "meta_norad_cat_id": 32729,
        "meta_element_set_no": 999,
        "meta_rev_at_epoch": 4380,
        "meta_bstar": 0,
        "meta_mean_motion_dot": -1.03e-06,
        "meta_mean_motion_ddot": 0,
        "tle_line1": "1 32729U 08013A   25354.88825869 -.00000103  00000+0  00000+0 0  9991",
        "tle_line2": "2 32729   0.0493 192.0747 0000808 309.9417 168.2831  1.00274637 43804"
      },
      "geometry": {
        "type": "Point",
        "coordinates": [
          77.07266408479452,
          0.019550670629968615
        ]
      }
    },
    {
      "type": "Feature",
      "properties": {
        "norad_id": 32951,
        "name": "GALAXY 18 (G-18)",
        "group": "intelsat",
        "lat": 0.012299075959757726,
        "lon": 53.277104617778036,
        "alt_km": 35795.23376523662,
        "timestamp": "2025-12-21T05:44:51.243533+00:00",
        "meta_object_name": "GALAXY 18 (G-18)",
        "meta_object_id": "2008-024A",
        "meta_epoch": "2025-12-20T17:46:55.869888",
        "meta_mean_motion": 1.00271082,
        "meta_eccentricity": 0.00028289,
        "meta_inclination": 0.016,
        "meta_ra_of_asc_node": 56.7149,
        "meta_arg_of_pericenter": 218.0405,
        "meta_mean_anomaly": 318.5378,
        "meta_ephemeris_type": 0,
        "meta_classification_type": "U",
        "meta_norad_cat_id": 32951,
        "meta_element_set_no": 999,
        "meta_rev_at_epoch": 4406,
        "meta_bstar": 0,
        "meta_mean_motion_dot": 4.9e-07,
        "meta_mean_motion_ddot": 0,
        "tle_line1": "1 32951U 08024A   25354.74092442  .00000049  00000+0  00000+0 0  9996",
        "tle_line2": "2 32951   0.0160  56.7149 0002828 218.0405 318.5378  1.00271082 44061"
      },
      "geometry": {
        "type": "Point",
        "coordinates": [
          53.277104617778036,
          0.012299075959757726
        ]
      }
    },
    {
      "type": "Feature",
      "properties": {
        "norad_id": 33153,
        "name": "INTELSAT 25 (IS-25)",
        "group": "intelsat",
        "lat": 2.004890785534718,
        "lon": 144.69007867706324,
        "alt_km": 35798.33521309412,
        "timestamp": "2025-12-21T05:44:51.243545+00:00",
        "meta_object_name": "INTELSAT 25 (IS-25)",
        "meta_object_id": "2008-034A",
        "meta_epoch": "2025-12-20T21:38:26.198304",
        "meta_mean_motion": 1.00269922,
        "meta_eccentricity": 0.00048031,
        "meta_inclination": 2.2474,
        "meta_ra_of_asc_node": 82.5624,
        "meta_arg_of_pericenter": 188.1555,
        "meta_mean_anomaly": 112.1057,
        "meta_ephemeris_type": 0,
        "meta_classification_type": "U",
        "meta_norad_cat_id": 33153,
        "meta_element_set_no": 999,
        "meta_rev_at_epoch": 6390,
        "meta_bstar": 0,
        "meta_mean_motion_dot": -2.03e-06,
        "meta_mean_motion_ddot": 0,
        "tle_line1": "1 33153U 08034A   25354.90169211 -.00000203  00000+0  00000+0 0  9992",
        "tle_line2": "2 33153   2.2474  82.5624 0004803 188.1555 112.1057  1.00269922 63907"
      },
      "geometry": {
        "type": "Point",
        "coordinates": [
          144.69007867706324,
          2.004890785534718
        ]
      }
    }
  ]
}